[{"OBJECT_NAME":"LAPAN-A3","OBJECT_ID":"2016-040E","EPOCH":"2026-03-09T23:01:57.724896","MEAN_MOTION":15.3238951,"ECCENTRICITY":0.00109839,"INCLINATION":97.1488,"RA_OF_ASC_NODE":68.4254,"ARG_OF_PERICENTER":22.062,"MEAN_ANOMALY":338.1093,"EPHEMERIS_TYPE":0,"CLASSIFICATION_TYPE":"U","NORAD_CAT_ID":41603,"ELEMENT_SET_NO":999,"REV_AT_EPOCH":53961,"BSTAR":0.00017567445,"MEAN_MOTION_DOT":5.428e-5,"MEAN_MOTION_DDOT":0},{"OBJECT_NAME":"STARLINK-33735","OBJECT_ID":"2025-070Q","EPOCH":"2026-03-09T12:44:41.224416","MEAN_MOTION":15.27594983,"ECCENTRICITY":0.00016853,"INCLINATION":42.9978,"RA_OF_ASC_NODE":260.5626,"ARG_OF_PERICENTER":278.6437,"MEAN_ANOMALY":81.4224,"EPHEMERIS_TYPE":0,"CLASSIFICATION_TYPE":"U","NORAD_CAT_ID":63474,"ELEMENT_SET_NO":999,"REV_AT_EPOCH":5295,"BSTAR":0.0010211458,"MEAN_MOTION_DOT":0.00027957,"MEAN_MOTION_DDOT":0}]
